{"type":"FeatureCollection","features":[{"type":"Feature","geometry":{"type":"Polygon","coordinates":[[[-1.6028,51.5183],[-1.594,51.5198],[-1.59,51.5217],[-1.5891,51.5245],[-1.5847,51.5249],[-1.5812,51.537],[-1.5694,51.5433],[-1.5699,51.5475],[-1.5661,51.5456],[-1.555,51.5534],[-1.5474,51.5531],[-1.5471,51.5514],[-1.5415,51.5521],[-1.5403,51.5495],[-1.531,51.5461],[-1.5307,51.5481],[-1.5213,51.5509],[-1.5129,51.5508],[-1.5047,51.5467],[-1.4967,51.5459],[-1.4896,51.5428],[-1.486,51.5406],[-1.488,51.5362],[-1.4859,51.5341],[-1.4771,51.5326],[-1.4764,51.5308],[-1.4707,51.53],[-1.4707,51.5286],[-1.463,51.5302],[-1.4648,51.5348],[-1.4644,51.5385],[-1.4568,51.5355],[-1.4478,51.5364],[-1.431,51.5426],[-1.4266,51.5456],[-1.4228,51.5358],[-1.4049,51.5472],[-1.3982,51.5434],[-1.3959,51.5403],[-1.3838,51.5404],[-1.377,51.5458],[-1.378,51.5497],[-1.3673,51.5525],[-1.3588,51.5466],[-1.3504,51.5469],[-1.3467,51.5439],[-1.3424,51.5437],[-1.338,51.5458],[-1.3381,51.5493],[-1.3331,51.5604],[-1.3287,51.5637],[-1.3263,51.5596],[-1.3034,51.5566],[-1.2971,51.5529],[-1.2876,51.5528],[-1.2855,51.5483],[-1.2702,51.5446],[-1.2607,51.5378],[-1.2402,51.5377],[-1.2299,51.5346],[-1.2189,51.5369],[-1.2149,51.5361],[-1.2046,51.5376],[-1.2032,51.5367],[-1.206,51.5318],[-1.2047,51.5284],[-1.1608,51.5346],[-1.1594,51.5349],[-1.1602,51.5366],[-1.1404,51.5429],[-1.1363,51.54],[-1.1344,51.5337],[-1.1385,51.5269],[-1.1435,51.5235],[-1.1421,51.5162],[-1.1339,51.5113],[-1.1193,51.5118],[-1.1132,51.5096],[-1.1088,51.5046],[-1.1044,51.4923],[-1.1013,51.4892],[-1.0878,51.4858],[-1.0614,51.4915],[-1.0513,51.4919],[-1.0424,51.4888],[-1.0376,51.4841],[-1.0383,51.476],[-1.0199,51.4672],[-1.014,51.4663],[-1.0072,51.468],[-1.0079,51.4716],[-1.0048,51.4727],[-1.0068,51.4735],[-0.9998,51.4752],[-0.9982,51.4776],[-0.9987,51.4803],[-1.0006,51.4808],[-0.9981,51.4817],[-0.9984,51.4843],[-0.9934,51.4863],[-0.9914,51.4852],[-0.9786,51.4856],[-0.9794,51.4875],[-0.9776,51.4884],[-0.9743,51.4868],[-0.9711,51.488],[-0.9696,51.4909],[-0.9575,51.4931],[-0.9539,51.4886],[-0.947,51.4861],[-0.948,51.4852],[-0.9445,51.482],[-0.9456,51.4817],[-0.9449,51.4792],[-0.9411,51.475],[-0.9473,51.4729],[-0.9465,51.4715],[-0.9492,51.4701],[-0.9472,51.4667],[-0.9494,51.4649],[-0.9552,51.4653],[-0.9555,51.4613],[-0.9496,51.4595],[-0.9443,51.4599],[-0.9306,51.4676],[-0.9217,51.468],[-0.9193,51.4727],[-0.9103,51.4771],[-0.9094,51.483],[-0.8977,51.487],[-0.8964,51.4918],[-0.8934,51.4925],[-0.8953,51.4939],[-0.8936,51.4968],[-0.8823,51.5014],[-0.8717,51.5024],[-0.8701,51.5041],[-0.872,51.5079],[-0.8804,51.512],[-0.8785,51.5235],[-0.9001,51.5367],[-0.9001,51.5405],[-0.8969,51.5449],[-0.9033,51.5459],[-0.9017,51.5561],[-0.91,51.5577],[-0.9136,51.5617],[-0.9196,51.5619],[-0.9214,51.5646],[-0.9241,51.5634],[-0.9283,51.566],[-0.9278,51.5681],[-0.9386,51.571],[-0.9415,51.5855],[-0.9249,51.5909],[-0.9169,51.5997],[-0.9201,51.6036],[-0.9293,51.6043],[-0.9335,51.6016],[-0.943,51.6048],[-0.9439,51.6108],[-0.94,51.6142],[-0.9386,51.6179],[-0.9457,51.6185],[-0.9501,51.6216],[-0.9489,51.6314],[-0.9436,51.6305],[-0.9346,51.6366],[-0.9372,51.6413],[-0.9451,51.6483],[-0.9507,51.6507],[-0.945,51.6498],[-0.9445,51.6522],[-0.9482,51.6521],[-0.9463,51.6538],[-0.9395,51.6543],[-0.9332,51.6526],[-0.9294,51.6557],[-0.9273,51.6514],[-0.9277,51.6547],[-0.9231,51.6569],[-0.9321,51.6647],[-0.9308,51.6661],[-0.9249,51.6654],[-0.9249,51.6669],[-0.9177,51.6724],[-0.9102,51.6739],[-0.8947,51.6683],[-0.8777,51.6684],[-0.8841,51.6738],[-0.8951,51.6747],[-0.8979,51.6764],[-0.8868,51.6814],[-0.8799,51.6809],[-0.882,51.6846],[-0.8926,51.6891],[-0.8948,51.6925],[-0.8866,51.7051],[-0.8897,51.7081],[-0.8876,51.7182],[-0.8912,51.7214],[-0.8972,51.7228],[-0.9017,51.7281],[-0.9006,51.7294],[-0.9097,51.7368],[-0.9183,51.7373],[-0.9209,51.7446],[-0.9236,51.7473],[-0.9284,51.7459],[-0.9332,51.7523],[-0.9359,51.7534],[-0.9441,51.7533],[-0.9537,51.7579],[-0.9631,51.7592],[-0.9739,51.758],[-0.9796,51.7607],[-0.9814,51.76],[-0.9806,51.7536],[-0.9861,51.7521],[-0.9934,51.7547],[-0.9973,51.7534],[-0.9983,51.7549],[-1.004,51.7545],[-1.0074,51.7559],[-1.0236,51.7555],[-1.0298,51.7579],[-1.0327,51.7559],[-1.0326,51.7531],[-1.0296,51.7489],[-1.0304,51.7449],[-1.0455,51.7446],[-1.0482,51.7476],[-1.0534,51.7493],[-1.055,51.7522],[-1.0664,51.7536],[-1.0729,51.7583],[-1.0778,51.7585],[-1.0809,51.7566],[-1.0831,51.7604],[-1.0828,51.7641],[-1.0788,51.7713],[-1.0827,51.7735],[-1.0799,51.7775],[-1.0834,51.7806],[-1.0967,51.7822],[-1.0976,51.7805],[-1.1064,51.7816],[-1.1154,51.7869],[-1.1219,51.7871],[-1.1229,51.7885],[-1.12,51.7923],[-1.1235,51.7942],[-1.1174,51.7992],[-1.1199,51.8002],[-1.1208,51.8043],[-1.1249,51.8075],[-1.1229,51.8102],[-1.1179,51.8111],[-1.116,51.8152],[-1.1101,51.8173],[-1.119,51.8208],[-1.1305,51.8311],[-1.1407,51.8347],[-1.1291,51.8391],[-1.1216,51.8453],[-1.1128,51.8414],[-1.1025,51.8403],[-1.088,51.8335],[-1.0862,51.8313],[-1.0784,51.8293],[-1.0733,51.8303],[-1.0716,51.8339],[-1.0686,51.8346],[-1.0619,51.8324],[-1.0592,51.8354],[-1.0471,51.8398],[-1.0516,51.8399],[-1.062,51.8441],[-1.0636,51.8478],[-1.0616,51.8486],[-1.066,51.8528],[-1.0631,51.8543],[-1.0661,51.8649],[-1.0645,51.8663],[-1.0646,51.8687],[-1.0692,51.8746],[-1.0776,51.8767],[-1.0765,51.8788],[-1.0702,51.8821],[-1.0698,51.8843],[-1.0714,51.8851],[-1.069,51.8873],[-1.0706,51.8888],[-1.0768,51.8878],[-1.0787,51.8901],[-1.0935,51.8939],[-1.0913,51.8975],[-1.0871,51.8974],[-1.0843,51.8995],[-1.086,51.9009],[-1.085,51.9046],[-1.0863,51.9053],[-1.0823,51.9119],[-1.0826,51.9158],[-1.0794,51.9172],[-1.0833,51.9182],[-1.0863,51.9204],[-1.0867,51.9226],[-1.0826,51.923],[-1.0821,51.9277],[-1.0781,51.9275],[-1.075,51.9307],[-1.0775,51.9316],[-1.0621,51.9351],[-1.0559,51.9426],[-1.0546,51.948],[-1.0593,51.9493],[-1.079,51.9434],[-1.0804,51.9447],[-1.0788,51.9467],[-1.0813,51.9504],[-1.0895,51.954],[-1.0889,51.9556],[-1.0952,51.9574],[-1.0877,51.967],[-1.0849,51.9685],[-1.0842,51.9723],[-1.0797,51.9759],[-1.0782,51.9811],[-1.0531,52.0025],[-1.0575,52.0032],[-1.0589,52.0079],[-1.0608,52.0086],[-1.0739,52.0063],[-1.0772,52.0088],[-1.0884,52.0058],[-1.0959,52.015],[-1.1029,52.0121],[-1.112,52.0166],[-1.115,52.0165],[-1.1162,52.0152],[-1.1198,52.0157],[-1.1253,52.0071],[-1.1313,52.0049],[-1.1343,51.9973],[-1.1439,51.997],[-1.1567,51.9922],[-1.1638,51.9934],[-1.1761,51.982],[-1.1908,51.9815],[-1.1963,51.9774],[-1.2297,51.9814],[-1.2416,51.9863],[-1.249,51.9857],[-1.2609,51.9809],[-1.2702,51.9829],[-1.2809,51.9824],[-1.2816,51.9799],[-1.2834,51.9795],[-1.2824,51.9806],[-1.2874,51.9877],[-1.2868,51.9893],[-1.2889,51.9897],[-1.284,51.9907],[-1.2824,51.9929],[-1.2847,51.9947],[-1.2824,51.9963],[-1.2834,51.9996],[-1.2771,52.0054],[-1.2786,52.0083],[-1.2846,52.0107],[-1.2786,52.0114],[-1.2782,52.0143],[-1.2844,52.0209],[-1.2838,52.025],[-1.2861,52.0256],[-1.2853,52.0265],[-1.2943,52.028],[-1.2919,52.032],[-1.2945,52.0371],[-1.2938,52.0386],[-1.2975,52.0427],[-1.3001,52.0436],[-1.3001,52.0454],[-1.3074,52.0472],[-1.3129,52.0515],[-1.3074,52.0576],[-1.3091,52.0607],[-1.3078,52.0644],[-1.3022,52.065],[-1.3001,52.0694],[-1.3069,52.0703],[-1.3035,52.072],[-1.3039,52.0736],[-1.302,52.0738],[-1.3019,52.0752],[-1.2989,52.0754],[-1.2975,52.0781],[-1.2996,52.0783],[-1.2994,52.0801],[-1.3182,52.0799],[-1.3205,52.0817],[-1.3195,52.0839],[-1.3213,52.0848],[-1.3212,52.087],[-1.308,52.0923],[-1.2871,52.0926],[-1.2723,52.0979],[-1.2548,52.0956],[-1.248,52.0958],[-1.2481,52.0972],[-1.25,52.1005],[-1.254,52.1025],[-1.2529,52.1039],[-1.2768,52.1171],[-1.2951,52.1347],[-1.2977,52.1353],[-1.2993,52.1384],[-1.3084,52.1435],[-1.3064,52.1456],[-1.3118,52.1479],[-1.3108,52.1495],[-1.3124,52.1498],[-1.3124,52.1513],[-1.3177,52.1534],[-1.3194,52.1577],[-1.3319,52.1685],[-1.3339,52.1654],[-1.334,52.1591],[-1.3382,52.1588],[-1.3435,52.1532],[-1.3416,52.1507],[-1.3428,52.1487],[-1.341,52.1449],[-1.3499,52.1416],[-1.3487,52.1351],[-1.3557,52.136],[-1.3628,52.1348],[-1.364,52.1367],[-1.3661,52.1361],[-1.3827,52.1275],[-1.3855,52.1284],[-1.3901,52.1227],[-1.3892,52.122],[-1.3933,52.119],[-1.3907,52.1168],[-1.3708,52.1175],[-1.3704,52.1127],[-1.3652,52.1113],[-1.3591,52.1052],[-1.3578,52.1013],[-1.3744,52.0997],[-1.3777,52.0961],[-1.3854,52.0941],[-1.3876,52.0974],[-1.402,52.1056],[-1.4039,52.1101],[-1.4196,52.1176],[-1.4259,52.1182],[-1.4432,52.1153],[-1.4487,52.1161],[-1.4535,52.113],[-1.4492,52.1083],[-1.4472,52.0976],[-1.4536,52.0973],[-1.4535,52.0985],[-1.4676,52.0971],[-1.4773,52.1014],[-1.4801,52.0935],[-1.4878,52.094],[-1.4868,52.0915],[-1.4847,52.0913],[-1.4856,52.0877],[-1.4878,52.0878],[-1.4906,52.0838],[-1.4944,52.0822],[-1.4907,52.0771],[-1.5019,52.0716],[-1.5001,52.0699],[-1.5026,52.0692],[-1.5018,52.0663],[-1.4973,52.0609],[-1.4974,52.059],[-1.5072,52.0365],[-1.5109,52.0214],[-1.5211,52.006],[-1.5228,51.9968],[-1.5253,51.9929],[-1.5279,51.9918],[-1.5417,51.9964],[-1.5572,51.9917],[-1.5497,51.9809],[-1.5806,51.973],[-1.6003,51.9769],[-1.5916,51.9704],[-1.5969,51.9644],[-1.6123,51.9554],[-1.6166,51.957],[-1.6263,51.9675],[-1.6383,51.9752],[-1.6658,51.9875],[-1.6641,51.9849],[-1.6689,51.9753],[-1.6625,51.964],[-1.6524,51.9615],[-1.6552,51.9598],[-1.6554,51.9575],[-1.6489,51.9589],[-1.6458,51.957],[-1.6325,51.9557],[-1.6254,51.9499],[-1.6152,51.9377],[-1.6236,51.9357],[-1.6455,51.9223],[-1.6412,51.9216],[-1.6415,51.9198],[-1.6455,51.9178],[-1.6434,51.9167],[-1.6449,51.9137],[-1.638,51.912],[-1.6349,51.9129],[-1.6342,51.9117],[-1.6361,51.9107],[-1.6347,51.9093],[-1.636,51.9071],[-1.6337,51.9057],[-1.6356,51.9044],[-1.6358,51.9019],[-1.6331,51.8992],[-1.6449,51.8946],[-1.6532,51.897],[-1.6587,51.8966],[-1.663,51.8922],[-1.6626,51.8873],[-1.666,51.885],[-1.6669,51.8815],[-1.669,51.8815],[-1.669,51.8781],[-1.6671,51.877],[-1.6789,51.8698],[-1.6835,51.8687],[-1.6869,51.8655],[-1.6851,51.8643],[-1.6872,51.8628],[-1.6812,51.8596],[-1.6806,51.8547],[-1.6764,51.8503],[-1.6787,51.8495],[-1.6811,51.8419],[-1.6865,51.8345],[-1.6811,51.8161],[-1.6769,51.817],[-1.6819,51.804],[-1.6869,51.7982],[-1.6934,51.7941],[-1.7195,51.7832],[-1.7084,51.7775],[-1.7007,51.7706],[-1.6985,51.7616],[-1.6937,51.7537],[-1.6957,51.7523],[-1.6939,51.7491],[-1.6949,51.7486],[-1.6916,51.7467],[-1.6927,51.746],[-1.687,51.7399],[-1.689,51.7391],[-1.6872,51.7334],[-1.6858,51.7334],[-1.6858,51.7299],[-1.6959,51.7235],[-1.6888,51.7174],[-1.6889,51.7151],[-1.6873,51.7146],[-1.6888,51.7136],[-1.688,51.712],[-1.6654,51.6973],[-1.6574,51.6965],[-1.6555,51.6915],[-1.6511,51.6888],[-1.6534,51.6872],[-1.6483,51.6841],[-1.6527,51.6815],[-1.6619,51.6804],[-1.6653,51.6818],[-1.6685,51.6804],[-1.6751,51.6824],[-1.6763,51.6842],[-1.6738,51.6848],[-1.676,51.6868],[-1.675,51.6874],[-1.6815,51.6904],[-1.6911,51.6873],[-1.6969,51.6815],[-1.6949,51.6786],[-1.6987,51.6765],[-1.7003,51.6712],[-1.699,51.6695],[-1.6941,51.6688],[-1.6942,51.6664],[-1.6906,51.6638],[-1.6885,51.6568],[-1.6927,51.6534],[-1.6919,51.6522],[-1.6863,51.6524],[-1.6797,51.6448],[-1.6749,51.6422],[-1.6756,51.6414],[-1.6633,51.6399],[-1.66,51.6351],[-1.6737,51.6228],[-1.6723,51.6203],[-1.6671,51.6179],[-1.667,51.6163],[-1.675,51.6118],[-1.6813,51.6136],[-1.6827,51.6125],[-1.6825,51.6095],[-1.6906,51.6054],[-1.6898,51.6026],[-1.6909,51.6019],[-1.6873,51.6001],[-1.6879,51.5955],[-1.6854,51.5937],[-1.6848,51.5903],[-1.6854,51.5876],[-1.6911,51.5835],[-1.6841,51.5729],[-1.6804,51.5725],[-1.6765,51.5694],[-1.6583,51.5742],[-1.655,51.5765],[-1.6477,51.572],[-1.6438,51.5641],[-1.6341,51.5533],[-1.632,51.5531],[-1.6223,51.5424],[-1.6138,51.5365],[-1.6028,51.5183]]]},"properties":{"NAME":"Oxfordshire County"}}]}